SL-14 R/B               
1 21423U 91042B   26030.67276045  .00000509  00000+0  61385-4 0  9996
2 21423  82.4907 255.8406 0017328  11.1512 349.0082 14.81793033847448
ERS-1                   
1 21574U 91050A   26030.95252636  .00000474  00000+0  16639-3 0  9995
2 21574  98.7895  48.2383 0031201 315.6588  44.2101 14.39416102810303
ARIANE 40 R/B           
1 21610U 91050F   26030.74644587  .00000439  00000+0  14392-3 0  9998
2 21610  98.2091  84.3923 0003277 168.2520 191.8747 14.42863614813528
INTERCOSMOS 25          
1 21819U 91086A   26030.84354910  .00001447  00000+0  28342-3 0  9997
2 21819  82.6092 332.8785 1486405 198.4804 155.6244 12.11898093492103
SL-8 R/B                
1 21876U 92008B   26030.83777477  .00000069  00000+0  55250-4 0  9999
2 21876  82.9280 295.9349 0033454 239.5682 189.1655 13.75968830704219
SL-8 R/B                
1 21938U 92020B   26030.95272402  .00000129  00000+0  11735-3 0  9999
2 21938  82.9316 181.7725 0029794  45.0956  76.5944 13.75543125695949
USA 81                  
1 21949U 92023A   26030.86558604  .00000262  00000+0  89734-4 0  9998
2 21949  85.0118 153.2491 0002316 110.6603 249.4838 14.32352520 89376
COSMOS 2219             
1 22219U 92076A   26030.88809431 -.00000239  00000+0 -10055-3 0  9991
2 22219  71.0597  97.0961 0020712 259.5821 100.2967 14.14078942713032
SL-16 R/B               
1 22220U 92076B   26030.93129708  .00000186  00000+0  11653-3 0  9995
2 22220  70.9987 267.9127 0012082 162.5244 287.4743 14.16851103716482
COSMOS 2221             
1 22236U 92080A   26030.84948558  .00002898  00000+0  25561-3 0  9994
2 22236  82.5067 315.3165 0013553 326.2611  33.7747 14.96036161775138
SL-16 R/B               
1 22285U 92093B   26030.86023420 -.00000176  00000+0 -65886-4 0  9990
2 22285  71.0212  83.6834 0004870 333.6387  26.4488 14.15443116707802
COSMOS 2228             
1 22286U 92094A   26030.89054993  .00002626  00000+0  22513-3 0  9993
2 22286  82.5174 273.5042 0019516  70.4133 289.9195 14.97013581770402
