CCSDS_OMM_VERS = 2.0
CREATION_DATE  = 
ORIGINATOR     = 

OBJECT_NAME    = SL-14 R/B
OBJECT_ID      = 1991-042B
CENTER_NAME    = EARTH
REF_FRAME      = TEME
TIME_SYSTEM    = UTC
MEAN_ELEMENT_THEORY = SGP/SGP4

EPOCH          = 2026-01-30T16:08:46.502880
MEAN_MOTION    = 14.81793033
ECCENTRICITY   = .0017328
INCLINATION    = 82.4907
RA_OF_ASC_NODE = 255.8406
ARG_OF_PERICENTER = 11.1512
MEAN_ANOMALY   = 349.0082

EPHEMERIS_TYPE = 0
CLASSIFICATION_TYPE = U
NORAD_CAT_ID   = 21423
ELEMENT_SET_NO = 999
REV_AT_EPOCH   = 84744
BSTAR          = .61384787E-4
MEAN_MOTION_DOT = .509E-5
MEAN_MOTION_DDOT = 0

CCSDS_OMM_VERS = 2.0
CREATION_DATE  = 
ORIGINATOR     = 

OBJECT_NAME    = ERS-1
OBJECT_ID      = 1991-050A
CENTER_NAME    = EARTH
REF_FRAME      = TEME
TIME_SYSTEM    = UTC
MEAN_ELEMENT_THEORY = SGP/SGP4

EPOCH          = 2026-01-30T22:51:38.277504
MEAN_MOTION    = 14.39416102
ECCENTRICITY   = .0031201
INCLINATION    = 98.7895
RA_OF_ASC_NODE = 48.2383
ARG_OF_PERICENTER = 315.6588
MEAN_ANOMALY   = 44.2101

EPHEMERIS_TYPE = 0
CLASSIFICATION_TYPE = U
NORAD_CAT_ID   = 21574
ELEMENT_SET_NO = 999
REV_AT_EPOCH   = 81030
BSTAR          = .16639006E-3
MEAN_MOTION_DOT = .474E-5
MEAN_MOTION_DDOT = 0

CCSDS_OMM_VERS = 2.0
CREATION_DATE  = 
ORIGINATOR     = 

OBJECT_NAME    = ARIANE 40 R/B
OBJECT_ID      = 1991-050F
CENTER_NAME    = EARTH
REF_FRAME      = TEME
TIME_SYSTEM    = UTC
MEAN_ELEMENT_THEORY = SGP/SGP4

EPOCH          = 2026-01-30T17:54:52.923168
MEAN_MOTION    = 14.42863614
ECCENTRICITY   = .00032778
INCLINATION    = 98.2091
RA_OF_ASC_NODE = 84.3923
ARG_OF_PERICENTER = 168.2520
MEAN_ANOMALY   = 191.8747

EPHEMERIS_TYPE = 0
CLASSIFICATION_TYPE = U
NORAD_CAT_ID   = 21610
ELEMENT_SET_NO = 999
REV_AT_EPOCH   = 81352
BSTAR          = .14391714E-3
MEAN_MOTION_DOT = .439E-5
MEAN_MOTION_DDOT = 0

CCSDS_OMM_VERS = 2.0
CREATION_DATE  = 
ORIGINATOR     = 

OBJECT_NAME    = INTERCOSMOS 25
OBJECT_ID      = 1991-086A
CENTER_NAME    = EARTH
REF_FRAME      = TEME
TIME_SYSTEM    = UTC
MEAN_ELEMENT_THEORY = SGP/SGP4

EPOCH          = 2026-01-30T20:14:42.642240
MEAN_MOTION    = 12.11898093
ECCENTRICITY   = .14864056
INCLINATION    = 82.6092
RA_OF_ASC_NODE = 332.8785
ARG_OF_PERICENTER = 198.4804
MEAN_ANOMALY   = 155.6244

EPHEMERIS_TYPE = 0
CLASSIFICATION_TYPE = U
NORAD_CAT_ID   = 21819
ELEMENT_SET_NO = 999
REV_AT_EPOCH   = 49210
BSTAR          = .28341584E-3
MEAN_MOTION_DOT = .1447E-4
MEAN_MOTION_DDOT = 0

CCSDS_OMM_VERS = 2.0
CREATION_DATE  = 
ORIGINATOR     = 

OBJECT_NAME    = SL-8 R/B
OBJECT_ID      = 1992-008B
CENTER_NAME    = EARTH
REF_FRAME      = TEME
TIME_SYSTEM    = UTC
MEAN_ELEMENT_THEORY = SGP/SGP4

EPOCH          = 2026-01-30T20:06:23.740128
MEAN_MOTION    = 13.75968830
ECCENTRICITY   = .00334548
INCLINATION    = 82.9280
RA_OF_ASC_NODE = 295.9349
ARG_OF_PERICENTER = 239.5682
MEAN_ANOMALY   = 189.1655

EPHEMERIS_TYPE = 0
CLASSIFICATION_TYPE = U
NORAD_CAT_ID   = 21876
ELEMENT_SET_NO = 999
REV_AT_EPOCH   = 70421
BSTAR          = .5525034E-4
MEAN_MOTION_DOT = .69E-6
MEAN_MOTION_DDOT = 0

CCSDS_OMM_VERS = 2.0
CREATION_DATE  = 
ORIGINATOR     = 

OBJECT_NAME    = SL-8 R/B
OBJECT_ID      = 1992-020B
CENTER_NAME    = EARTH
REF_FRAME      = TEME
TIME_SYSTEM    = UTC
MEAN_ELEMENT_THEORY = SGP/SGP4

EPOCH          = 2026-01-30T22:51:55.355328
MEAN_MOTION    = 13.75543125
ECCENTRICITY   = .00297942
INCLINATION    = 82.9316
RA_OF_ASC_NODE = 181.7725
ARG_OF_PERICENTER = 45.0956
MEAN_ANOMALY   = 76.5944

EPHEMERIS_TYPE = 0
CLASSIFICATION_TYPE = U
NORAD_CAT_ID   = 21938
ELEMENT_SET_NO = 999
REV_AT_EPOCH   = 69594
BSTAR          = .11735196E-3
MEAN_MOTION_DOT = .129E-5
MEAN_MOTION_DDOT = 0

CCSDS_OMM_VERS = 2.0
CREATION_DATE  = 
ORIGINATOR     = 

OBJECT_NAME    = USA 81
OBJECT_ID      = 1992-023A
CENTER_NAME    = EARTH
REF_FRAME      = TEME
TIME_SYSTEM    = UTC
MEAN_ELEMENT_THEORY = SGP/SGP4

EPOCH          = 2026-01-30T20:46:26.633856
MEAN_MOTION    = 14.32352520
ECCENTRICITY   = .00023165
INCLINATION    = 85.0118
RA_OF_ASC_NODE = 153.2491
ARG_OF_PERICENTER = 110.6603
MEAN_ANOMALY   = 249.4838

EPHEMERIS_TYPE = 0
CLASSIFICATION_TYPE = U
NORAD_CAT_ID   = 21949
ELEMENT_SET_NO = 999
REV_AT_EPOCH   = 8937
BSTAR          = .8973355E-4
MEAN_MOTION_DOT = .262E-5
MEAN_MOTION_DDOT = 0

CCSDS_OMM_VERS = 2.0
CREATION_DATE  = 
ORIGINATOR     = 

OBJECT_NAME    = COSMOS 2219
OBJECT_ID      = 1992-076A
CENTER_NAME    = EARTH
REF_FRAME      = TEME
TIME_SYSTEM    = UTC
MEAN_ELEMENT_THEORY = SGP/SGP4

EPOCH          = 2026-01-30T21:18:51.348384
MEAN_MOTION    = 14.14078942
ECCENTRICITY   = .00207124
INCLINATION    = 71.0597
RA_OF_ASC_NODE = 97.0961
ARG_OF_PERICENTER = 259.5821
MEAN_ANOMALY   = 100.2967

EPHEMERIS_TYPE = 0
CLASSIFICATION_TYPE = U
NORAD_CAT_ID   = 22219
ELEMENT_SET_NO = 999
REV_AT_EPOCH   = 71303
BSTAR          = -.10055362E-3
MEAN_MOTION_DOT = -.239E-5
MEAN_MOTION_DDOT = 0

CCSDS_OMM_VERS = 2.0
CREATION_DATE  = 
ORIGINATOR     = 

OBJECT_NAME    = SL-16 R/B
OBJECT_ID      = 1992-076B
CENTER_NAME    = EARTH
REF_FRAME      = TEME
TIME_SYSTEM    = UTC
MEAN_ELEMENT_THEORY = SGP/SGP4

EPOCH          = 2026-01-30T22:21:04.067712
MEAN_MOTION    = 14.16851103
ECCENTRICITY   = .00120821
INCLINATION    = 70.9987
RA_OF_ASC_NODE = 267.9127
ARG_OF_PERICENTER = 162.5244
MEAN_ANOMALY   = 287.4743

EPHEMERIS_TYPE = 0
CLASSIFICATION_TYPE = U
NORAD_CAT_ID   = 22220
ELEMENT_SET_NO = 999
REV_AT_EPOCH   = 71648
BSTAR          = .11652854E-3
MEAN_MOTION_DOT = .186E-5
MEAN_MOTION_DDOT = 0

CCSDS_OMM_VERS = 2.0
CREATION_DATE  = 
ORIGINATOR     = 

OBJECT_NAME    = COSMOS 2221
OBJECT_ID      = 1992-080A
CENTER_NAME    = EARTH
REF_FRAME      = TEME
TIME_SYSTEM    = UTC
MEAN_ELEMENT_THEORY = SGP/SGP4

EPOCH          = 2026-01-30T20:23:15.554112
MEAN_MOTION    = 14.96036161
ECCENTRICITY   = .00135537
INCLINATION    = 82.5067
RA_OF_ASC_NODE = 315.3165
ARG_OF_PERICENTER = 326.2611
MEAN_ANOMALY   = 33.7747

EPHEMERIS_TYPE = 0
CLASSIFICATION_TYPE = U
NORAD_CAT_ID   = 22236
ELEMENT_SET_NO = 999
REV_AT_EPOCH   = 77513
BSTAR          = .25561368E-3
MEAN_MOTION_DOT = .2898E-4
MEAN_MOTION_DDOT = 0

CCSDS_OMM_VERS = 2.0
CREATION_DATE  = 
ORIGINATOR     = 

OBJECT_NAME    = SL-16 R/B
OBJECT_ID      = 1992-093B
CENTER_NAME    = EARTH
REF_FRAME      = TEME
TIME_SYSTEM    = UTC
MEAN_ELEMENT_THEORY = SGP/SGP4

EPOCH          = 2026-01-30T20:38:44.234880
MEAN_MOTION    = 14.15443116
ECCENTRICITY   = .00048705
INCLINATION    = 71.0212
RA_OF_ASC_NODE = 83.6834
ARG_OF_PERICENTER = 333.6387
MEAN_ANOMALY   = 26.4488

EPHEMERIS_TYPE = 0
CLASSIFICATION_TYPE = U
NORAD_CAT_ID   = 22285
ELEMENT_SET_NO = 999
REV_AT_EPOCH   = 70780
BSTAR          = -.65886264E-4
MEAN_MOTION_DOT = -.176E-5
MEAN_MOTION_DDOT = 0

CCSDS_OMM_VERS = 2.0
CREATION_DATE  = 
ORIGINATOR     = 

OBJECT_NAME    = COSMOS 2228
OBJECT_ID      = 1992-094A
CENTER_NAME    = EARTH
REF_FRAME      = TEME
TIME_SYSTEM    = UTC
MEAN_ELEMENT_THEORY = SGP/SGP4

EPOCH          = 2026-01-30T21:22:23.513952
MEAN_MOTION    = 14.97013581
ECCENTRICITY   = .00195161
INCLINATION    = 82.5174
RA_OF_ASC_NODE = 273.5042
ARG_OF_PERICENTER = 70.4133
MEAN_ANOMALY   = 289.9195

EPHEMERIS_TYPE = 0
CLASSIFICATION_TYPE = U
NORAD_CAT_ID   = 22286
ELEMENT_SET_NO = 999
REV_AT_EPOCH   = 77040
BSTAR          = .2251329E-3
MEAN_MOTION_DOT = .2626E-4
MEAN_MOTION_DDOT = 0

